From: horizons@ssd.jpl.nasa.gov (Horizons Ephemeris System)
Subject: [Horizons] SMALL BODY #C(500@10)_T(267P/LONEOS) (1/1)
Date: March 1, 2021 at 1:23:05 PM PST

Automated mail xmit by MAIL_REQUEST, PID= 2301 Mon Mar  1 13:23:05 2021
++++++++++++++++++++++++++++++++ (part 1 of 1)  +++++++++++++++++++++++++++++++
*******************************************************************************
JPL/HORIZONS                     267P/LONEOS               2021-Mar-01 13:23:05
Rec #:90001181 (+COV) Soln.date: 2019-Dec-08_14:19:23    # obs: 197 (2006-2018)

IAU76/J2000 helio. ecliptic osc. elements (au, days, deg., period=Julian yrs):

 EPOCH=  2454368.5 ! 2007-Sep-25.0000000 (TDB)    RMSW= n.a.
  EC= .5933898575700564   QR= 1.337651088440562   TP= 2453981.4338670243
  OM= 245.2488887700793   W= 96.85509354054687    IN= 5.368340517589779
  A= 3.289763212611036    MA= 63.93553266480286   ADIST= 5.24187533678151
  PER= 5.9669881328545    N= .165179863           ANGMOM= .025113884
  DAN= 2.29387            DDN= 1.99043            L= 342.1338932
  B= 5.3298518            MOID= .34642199         TP= 2006-Sep-02.9338670243

Comet physical (GM= km^3/s^2; RAD= km):
  GM= n.a.                RAD= n.a.
  M1=  18.8     M2=  20.9     k1=  16.    k2=  5.      PHCOF=  .030

Comet non-gravitational force model (AMRAT=m^2/kg;A1-A3=au/d^2;DT=days;R0=au):
  AMRAT=  0.                                      DT=  0.
  A1= 0.                  A2= -3.447969909757E-11 A3= 0.
Standard model:
  ALN=  .1112620426   NK=  4.6142   NM=  2.15     NN=  5.093    R0=  2.808

COMET comments 
1: soln ref.= JPL#23, data arc: 2006-08-29 to 2018-11-17
2: k1=16., k2=5., phase coef.=0.03;
*******************************************************************************


*******************************************************************************
Ephemeris / MAIL_REQUEST Mon Mar  1 13:23:05 2021 Pasadena, USA  / Horizons
*******************************************************************************
Target body name: 267P/LONEOS                     {source: JPL#23}
Center body name: Sun (10)                        {source: DE431}
Center-site name: BODY CENTER
*******************************************************************************
Start time      : A.D. 1990-Jan-01 00:00:00.0000 TDB
Stop  time      : A.D. 2020-Dec-31 00:00:00.0000 TDB
Step-size       : 10080 minutes
*******************************************************************************
Center geodetic : 0.00000000,0.00000000,0.0000000 {E-lon(deg),Lat(deg),Alt(km)}
Center cylindric: 0.00000000,0.00000000,0.0000000 {E-lon(deg),Dxy(km),Dz(km)}
Center radii    : 696000.0 x 696000.0 x 696000.0 k{Equator, meridian, pole}    
Small perturbers: Yes                             {source: SB431-N16}
Output units    : AU-D
Output type     : GEOMETRIC cartesian states
Output format   : 6 (LT, range, and range-rate)
Reference frame : Ecliptic of J2000.0
*******************************************************************************
Initial IAU76/J2000 heliocentric ecliptic osculating elements (au, days, deg.):
 EPOCH=  2454368.5 ! 2007-Sep-25.0000000 (TDB)    RMSW= n.a.                  
  EC= .5933898575700564   QR= 1.337651088440562   TP= 2453981.4338670243      
  OM= 245.2488887700793   W= 96.85509354054687    IN= 5.368340517589779       
 Equivalent ICRF heliocentric equatorial cartesian coordinates (au, au/d):
  X=-1.456303825685289E+00  Y= 3.060411811254703E+00  Z= 1.053027208573046E+00
 VX=-8.546580262336852E-03 VY= 1.939345767528287E-03 VZ=-2.992372555510374E-05
Comet physical (GM= km^3/s^2; RAD= km):                                        
  GM= n.a.                RAD= n.a.                                           
  M1=  18.8     M2=  20.9     k1=  16.    k2=  5.      PHCOF=  .030           
Comet non-gravitational force model (AMRAT=m^2/kg;A1-A3=au/d^2;DT=days;R0=au): 
  AMRAT=  0.                                      DT=  0.                     
  A1= 0.                  A2= -3.447969909757E-11 A3= 0.                      
Standard model:                                                               
  ALN=  .1112620426   NK=  4.6142   NM=  2.15     NN=  5.093    R0=  2.808    
*******************************************************************************
           JDTDB,            Calendar Date (TDB),                     LT,                     RG,                     RR,
**************************************************************************************************************************
$$SOE
2458364.500000000, A.D. 2018-Sep-03 00:00:00.0000,  7.750877960166354E-03,  1.342022917315869E+00,  4.452559016191280E-03,
2458371.500000000, A.D. 2018-Sep-10 00:00:00.0000,  7.941887630466982E-03,  1.375095216517299E+00,  4.985625954184685E-03,
2458378.500000000, A.D. 2018-Sep-17 00:00:00.0000,  8.153115863150512E-03,  1.411668251275718E+00,  5.453009801251079E-03,
2458385.500000000, A.D. 2018-Sep-24 00:00:00.0000,  8.381949601387091E-03,  1.451289584826163E+00,  5.857113849525817E-03,
2458392.500000000, A.D. 2018-Oct-01 00:00:00.0000,  8.625905471601062E-03,  1.493529234363085E+00,  6.201843008965737E-03,
2458399.500000000, A.D. 2018-Oct-08 00:00:00.0000,  8.882678121015656E-03,  1.537988040426767E+00,  6.492008819290239E-03,
2458406.500000000, A.D. 2018-Oct-15 00:00:00.0000,  9.150166758156730E-03,  1.584302262249091E+00,  6.732849869769801E-03,
2458413.500000000, A.D. 2018-Oct-22 00:00:00.0000,  9.426484816499296E-03,  1.632145250962075E+00,  6.929675801847524E-03,
2458420.500000000, A.D. 2018-Oct-29 00:00:00.0000,  9.709957548902949E-03,  1.681227033087268E+00,  7.087623305079798E-03,
2458427.500000000, A.D. 2018-Nov-05 00:00:00.0000,  9.999111683461025E-03,  1.731292519501564E+00,  7.211503686965679E-03,
2458434.500000000, A.D. 2018-Nov-12 00:00:00.0000,  1.029266039198118E-02,  1.782118902810284E+00,  7.305719817654684E-03,
2458441.500000000, A.D. 2018-Nov-19 00:00:00.0000,  1.058948595944251E-02,  1.833512656656699E+00,  7.374232417925218E-03,
2458448.500000000, A.D. 2018-Nov-26 00:00:00.0000,  1.088862181164793E-02,  1.885306423906502E+00,  7.420559756613381E-03,
2458455.500000000, A.D. 2018-Dec-03 00:00:00.0000,  1.118923500254405E-02,  1.937355984421243E+00,  7.447798887334072E-03,
2458462.500000000, A.D. 2018-Dec-10 00:00:00.0000,  1.149060980343847E-02,  1.989537413619379E+00,  7.458656985588718E-03,
2458469.500000000, A.D. 2018-Dec-17 00:00:00.0000,  1.179213262763068E-02,  2.041744472257039E+00,  7.455485996377119E-03,
2458476.500000000, A.D. 2018-Dec-24 00:00:00.0000,  1.209327844812721E-02,  2.093886254728293E+00,  7.440321701567255E-03,
2458483.500000000, A.D. 2018-Dec-31 00:00:00.0000,  1.239359880951492E-02,  2.145885113385364E+00,  7.414922477014153E-03,
2458490.500000000, A.D. 2019-Jan-07 00:00:00.0000,  1.269271133605250E-02,  2.197674841920977E+00,  7.380804469945458E-03,
2458497.500000000, A.D. 2019-Jan-14 00:00:00.0000,  1.299029059152143E-02,  2.249199092800618E+00,  7.339273335179755E-03,
2458504.500000000, A.D. 2019-Jan-21 00:00:00.0000,  1.328606015414644E-02,  2.300410005077545E+00,  7.291452603922362E-03,
2458511.500000000, A.D. 2019-Jan-28 00:00:00.0000,  1.357978577050723E-02,  2.351267019029350E+00,  7.238308706890043E-03,
2458518.500000000, A.D. 2019-Feb-04 00:00:00.0000,  1.387126945575435E-02,  2.401735854641998E+00,  7.180672797269432E-03,
2458525.500000000, A.D. 2019-Feb-11 00:00:00.0000,  1.416034441509649E-02,  2.451787632292613E+00,  7.119259598716297E-03,
2458532.500000000, A.D. 2019-Feb-18 00:00:00.0000,  1.444687067272110E-02,  2.501398115920551E+00,  7.054683645953579E-03,
2458539.500000000, A.D. 2019-Feb-25 00:00:00.0000,  1.473073131984228E-02,  2.550547063397020E+00,  6.987473915149866E-03,
2458546.500000000, A.D. 2019-Mar-04 00:00:00.0000,  1.501182933871355E-02,  2.599217676619941E+00,  6.918087496179331E-03,
2458553.500000000, A.D. 2019-Mar-11 00:00:00.0000,  1.529008490467966E-02,  2.647396134378707E+00,  6.846918922304383E-03,
2458560.500000000, A.D. 2019-Mar-18 00:00:00.0000,  1.556543298594546E-02,  2.695071176767031E+00,  6.774306728518267E-03,
2458567.500000000, A.D. 2019-Mar-25 00:00:00.0000,  1.583782124657008E-02,  2.742233742097655E+00,  6.700541853643463E-03,
2458574.500000000, A.D. 2019-Apr-01 00:00:00.0000,  1.610720827913481E-02,  2.788876660898280E+00,  6.625875051008177E-03,
2458581.500000000, A.D. 2019-Apr-08 00:00:00.0000,  1.637356209860046E-02,  2.834994395131039E+00,  6.550522535117072E-03,
2458588.500000000, A.D. 2019-Apr-15 00:00:00.0000,  1.663685884294574E-02,  2.880582813215029E+00,  6.474670656305571E-03,
2458595.500000000, A.D. 2019-Apr-22 00:00:00.0000,  1.689708164898321E-02,  2.925638995379845E+00,  6.398479915897339E-03,
2458602.500000000, A.D. 2019-Apr-29 00:00:00.0000,  1.715421967880859E-02,  2.970161065100540E+00,  6.322088412001502E-03,
2458609.500000000, A.D. 2019-May-06 00:00:00.0000,  1.740826727470337E-02,  3.014148042773514E+00,  6.245614750719644E-03,
2458616.500000000, A.D. 2019-May-13 00:00:00.0000,  1.765922322103268E-02,  3.057599717918118E+00,  6.169160432227884E-03,
2458623.500000000, A.D. 2019-May-20 00:00:00.0000,  1.790709009481139E-02,  3.100516536730645E+00,  6.092811948887985E-03,
2458630.500000000, A.D. 2019-May-27 00:00:00.0000,  1.815187371326491E-02,  3.142899506432453E+00,  6.016643722280324E-03,
2458637.500000000, A.D. 2019-Jun-03 00:00:00.0000,  1.839358271651113E-02,  3.184750123013575E+00,  5.940721242736086E-03,
2458644.500000000, A.D. 2019-Jun-10 00:00:00.0000,  1.863222820552374E-02,  3.226070308548029E+00,  5.865100445761194E-03,
2458651.500000000, A.D. 2019-Jun-17 00:00:00.0000,  1.886782333905949E-02,  3.266862341403915E+00,  5.789827463139204E-03,
2458658.500000000, A.D. 2019-Jun-24 00:00:00.0000,  1.910038297892957E-02,  3.307128794824073E+00,  5.714940760655402E-03,
2458665.500000000, A.D. 2019-Jul-01 00:00:00.0000,  1.932992341444020E-02,  3.346872489214447E+00,  5.640472665541027E-03,
